1 37013U 99025ECV 18208.73171508 +.00001919 +00000-0 +24071-3 0  9997
2 37013 098.4132 189.2064 0107775 283.8185 075.1051 14.79518193152718
1 37014U 99025ECW 18212.27678712  .00000740  00000-0  37318-3 0  9990
2 37014  99.0054 238.4305 0034765 193.3456 166.6802 14.19140754446240
1 37017U 99025ECZ 18210.99734500  .00000185  00000-0  62968-4 0  9991
2 37017  98.7225 127.9707 0354833 265.3578  90.6997 14.18781509531359
1 37018U 99025EDA 18211.18333536  .00000950  00000-0  47631-3 0  9997
2 37018  98.5147 198.6358 0352681 315.0316  42.2773 13.91195177518888
1 37019U 99025EDB 18205.99011251 +.00000478 +00000-0 +19392-3 0  9995
2 37019 098.7460 284.4950 0200553 265.3897 092.4350 14.22177692263266
1 37020U 99025EDC 12092.76468176 +.00008233 +00000-0 +14885-2 0  9990
2 37020 097.7966 278.2827 0317096 292.7923 063.1028 14.38871371154388
1 37021U 99025EDD 18211.95966729 +.00000322 +00000-0 +13470-3 0  9999
2 37021 098.6671 268.4334 0198409 201.3227 285.5727 14.22671033317141
1 37022U 99025EDE 18177.95921503 +.00000947 +00000-0 +57717-3 0  9997
2 37022 098.4717 232.1774 0151492 014.0481 108.0789 14.02732317521874
1 37024U 99025EDG 18211.92956360 +.00001914 +00000-0 +39883-3 0  9993
2 37024 099.3302 266.6870 0030515 312.6397 047.2228 14.61126194235846
1 37025U 99025EDH 14225.62686498 +.00001691 +00000-0 +92453-3 0  9998
2 37025 098.2409 010.1982 0058630 211.6795 148.1333 14.12310199364945
1 37026U 99025EDJ 18208.90502163 +.00000452 +00000-0 +20020-3 0  9996
2 37026 098.7982 258.1053 0055816 041.1666 319.3704 14.27207022265205
1 37027U 99025EDK 12269.99706184 -.00225168 +00000-0 -95582-1 0  9994
2 37027 098.8325 286.9156 0124832 037.2816 323.8819 14.22836690193952
1 37028U 99025EDL 18211.61087740  .00000348  00000-0  22841-3 0  9996
2 37028  99.2614 343.6175 0041536  68.9347 291.6256 14.08514700564262
1 37029U 99025EDM 11154.27664917 +.00003802 +00000-0 +16653-2 0  9996
2 37029 099.7201 322.6126 0040909 144.7798 214.5503 14.23942953177686
1 37030U 99025EDN 18151.28840042  .00001761  00000-0  75430-3 0  9999
2 37030  99.7059 183.5702 0032686 231.5855 128.2385 14.26105178497794
1 37031U 99025EDP 13276.59222959 +.00003598 +00000-0 +12519-2 0  9996
2 37031 099.6938 202.3361 0054442 202.5395 157.4716 14.35336407267127
1 37032U 99025EDQ 18211.25187876  .00001986  00000-0  19181-3 0  9994
2 37032  99.3745  17.5456 0089451 141.1274 219.6418 14.91457636566328
1 37033U 99025EDR 14010.74901544 +.00001926 +00000-0 +56596-3 0  9993
2 37033 099.6810 354.2668 0119936 182.1140 177.9553 14.41089992322574
1 37034U 99025EDS 10029.37010495 +.00001032 +00000-0 +36414-3 0  9990
2 37034 098.9503 074.3057 0108017 334.4475 031.7245 14.33842578122895
1 37035U 99025EDT 18210.87895774 +.00000807 +00000-0 +47232-3 0  9996
2 37035 100.6371 233.9378 0066060 203.7717 156.0392 14.10990417556994
1 37036U 99025EDU 18211.37169383 +.00000278 +00000-0 +19942-3 0  9992
2 37036 098.9315 266.0518 0129413 005.8114 354.4517 14.00999081260281
1 37038U 99025EDW 18171.04328661  .00001486  00000-0  65297-3 0  9995
2 37038  99.0355 266.5387 0061562 190.7915 169.1946 14.24144179526504
1 37039U 99025EDX 12238.29438248 +.00007539 +00000-0 +11388-2 0  9990
2 37039 098.9700 034.6354 0121923 268.8898 087.6090 14.69676837225162
1 37040U 99025EDY 18201.71835855  .00000683  00000-0  33554-3 0  9993
2 37040  99.5643 164.3626 0083995 314.6030 167.3650 14.19635218492217
1 37041U 99025EDZ 18195.95074527  .00000433  00000-0  32047-3 0  9992
2 37041  98.9794  91.4121 0163467 240.1763 118.3062 13.94410498548068
1 37042U 99025EEA 18211.35351524  .00000684  00000-0  23624-3 0  9990
2 37042  98.7398 251.9656 0105164 195.8252 163.9639 14.36051731562095
1 37043U 99025EEB 18211.59298873 +.00002514 +00000-0 +62005-3 0  9994
2 37043 099.3273 138.6026 0090438 344.7055 015.1406 14.50766327249733
1 37044U 99025EEC 18207.11220452 -.00000003 +00000-0 +23932-4 0  9995
2 37044 098.9412 161.1645 0594723 266.7738 086.5232 13.48053358473792
1 37045U 99025EED 18204.26640283 +.00000957 +00000-0 +59633-3 0  9990
2 37045 098.3215 210.0786 0130282 254.2087 104.4683 14.02942052538457
1 37046U 99025EEE 18209.32897016 +.00000248 +00000-0 +14114-3 0  9999
2 37046 098.7992 245.2732 0057302 154.2587 206.1460 14.17582845259527
1 37047U 99025EEF 18211.14525626 -.00000658  00000-0 -54334-3 0  9993
2 37047  99.1535 342.7285 0279833  88.5589 274.7592 13.69100008553806
1 37048U 99025EEG 18212.36127377  .00000117  00000-0  16259-3 0  9992
2 37048  98.9037 260.9589 0257022 327.5330  87.7460 13.62435244496106
1 37049U 99025EEH 18210.29519313 +.00000483 +00000-0 +25612-3 0  9997
2 37049 099.2836 029.2910 0048974 312.0837 047.6176 14.18129797541742
1 37051U 99025EEK 18212.18381179  .00079907  00000-0  17277-2 0  9991
2 37051  98.9112 191.7579 0008381 153.9812 206.1854 15.44165615477288
1 37052U 99025EEL 18198.42133264  .00000113  00000-0  16498-3 0  9990
2 37052  98.7440 266.5597 0549043 334.0644  23.3876 13.21111334476253
1 37053U 99025EEM 18208.48738719 +.00000459 +00000-0 +18128-3 0  9990
2 37053 099.1470 098.2990 0058872 139.3823 345.1564 14.33138176494682
1 37054U 99025EEN 18210.97518253  .00000070  00000-0  54569-4 0  9996
2 37054  98.6689 258.7234 0103639 305.4156  53.7374 14.16358584502599
1 37055U 99025EEP 18212.43731549  .00000579  00000-0  16869-3 0  9999
2 37055  98.6182 296.1032 0106151  88.0211 273.3132 14.44778342511690
1 37056U 99025EEQ 18211.41067893  .00000111  00000-0  33778-4 0  9992
2 37056  98.9799  66.5183 0302151 234.2338 123.0411 14.39812445486360
1 37057U 99025EER 18212.28781236  .00000082  00000-0  70013-4 0  9993
2 37057  99.1921 242.3515 0291601 303.2001  54.1507 13.93190395471237
1 37058U 99025EES 18169.99996813  .00006490  00000-0  17165-2 0  9998
2 37058  96.6782 240.0191 0094640 223.7254 135.6420 14.46402725454681
1 37059U 99025EET 15249.98317232  .00010772  00000-0  11636-2 0  9991
2 37059  98.6068 326.5617 0132532 303.7366  55.1677 14.82262040353312
1 37060U 99025EEU 18211.21795806  .00000408  00000-0  31255-3 0  9993
2 37060  99.3275 209.2566 0082382 156.7838 203.7079 13.97620956543967
1 37061U 99025EEV 18211.21259794  .00000434  00000-0  26760-3 0  9999
2 37061  98.0350 197.6178 0906016   7.1442 354.1624 12.89782540693091
1 37062U 99025EEW 13239.81117959 +.00000694 +00000-0 +18360-3 0  9992
2 37062 098.6149 244.9623 0218378 003.9261 002.7389 14.39013980259774
1 37064U 99025EEY 18212.37975235  .00000809  00000-0  64312-3 0  9996
2 37064  98.9019  48.7591 0141162 317.0437  41.9767 13.89553528454772
1 37065U 99025EEZ 18189.65573240 -.00000223  00000-0 -17493-3 0  9991
2 37065 103.3171 130.1805 0317102 288.4044  68.2844 13.49103414517084
1 37067U 99025EFB 18211.89573487 +.00000781 +00000-0 +72376-3 0  9996
2 37067 099.3815 093.8053 0216615 011.3926 349.2016 13.75404881202360
1 37068U 99025EFC 18212.25505043  .00006858  00000-0  48058-3 0  9992
2 37068  98.6332  16.2639 0099499 113.8741 247.2945 15.01613755511058
1 37069U 99025EFD 18204.26046956 +.00000631 +00000-0 +82820-3 0  9996
2 37069 095.8428 215.0282 0453935 235.4414 120.3092 13.27283117518124
1 37070U 99025EFE 14360.12828883 +.00008172 +00000-0 +16173-2 0  9994
2 37070 098.7814 123.3516 0150446 319.3414 029.8394 14.55620330274379
1 37074U 99025EFJ 10249.68255970 +.00008707 +00000-0 +80018-3 0  9996
2 37074 099.2133 071.4264 0218646 194.0568 165.4267 14.78642535095059
1 37076U 99025EFL 18174.83415751  .00000739  00000-0  45484-3 0  9990
2 37076  98.2978 198.3405 0161171 266.6509  91.6211 14.02127951495425
1 37077U 99025EFM 18210.15588021 +.00000087 +00000-0 +45099-4 0  9997
2 37077 099.0337 102.6678 0103054 307.4939 051.6909 14.35836523463299
1 37079U 99025EFP 18210.92634606  .00000611  00000-0  30155-3 0  9994
2 37079  98.9308 259.4334 0023861  56.4655 303.8796 14.21102734490886
1 37080U 99025EFQ 18168.95447963 +.00000763 +00000-0 +47321-3 0  9990
2 37080 098.1593 078.8174 0174829 331.8728 027.3078 14.00466673494464
1 37081U 99025EFR 18211.08474560 +.00000476 +00000-0 +36020-3 0  9992
2 37081 098.7411 172.4698 0380425 052.2823 311.2174 13.68594187214549
1 37084U 93036BFE 18184.57818344 +.00000125 +00000-0 +18991-4 0  9995
2 37084 074.0333 158.3349 0142157 233.1726 125.6343 14.79660053259181
1 37085U 93036BFF 18211.58486888  .00000400  00000-0  62921-4 0  9990
2 37085  73.9808 174.7572 0093536 302.3256  56.8883 14.73554825461711
1 37086U 93036BFG 18211.81282344  .00000656  00000-0  13848-3 0  9994
2 37086  74.0044 356.4578 0056111  70.0305 290.6892 14.60506389435697
1 37087U 93036BFH 18212.43807245  .00001522  00000-0  33894-3 0  9993
2 37087  74.0207 226.2489 0208718 270.2859  87.4385 14.45294417457832
1 37088U 93036BFJ 18211.35728843 +.00000686 +00000-0 +13766-3 0  9996
2 37088 074.0223 347.1886 0025505 073.0408 287.3551 14.63534769438321
1 37089U 93036BFK 18211.11635299  .00000208  00000-0  84263-4 0  9994
2 37089  74.0448   0.4922 0208189  36.3823 325.1267 14.22487014451241
1 37092U 93036BFN 18210.18680345 +.00001757 +00000-0 +29195-3 0  9998
2 37092 074.0214 022.6322 0015674 019.9312 340.2468 14.70863719468142
1 37093U 93036BFP 18206.73111500 +.00001912 +00000-0 +32167-3 0  9993
2 37093 074.0218 353.6949 0163290 199.6922 159.7896 14.61912703456772
1 37094U 93036BFQ 18208.95876580 +.00000279 +00000-0 +11935-3 0  9991
2 37094 074.1161 316.5192 0098903 269.0076 089.9739 14.26838145459916
1 37095U 93036BFR 18211.26658388  .00000329  00000-0  22309-3 0  9997
2 37095  73.8493 193.1198 0221067  20.4060 340.5729 13.92794316473955
1 37097U 93036BFT 14006.09072096 -.00161143 +00000-0 -34702-1 0  9996
2 37097 074.0192 278.5435 0113048 056.5630 304.6281 14.55483772199219
1 37101U 93036BFX 18212.38628880  .00000372  00000-0  11132-3 0  9993
2 37101  74.0411 106.1245 0064340 144.9291 215.6130 14.45159971438376
1 37103U 93036BFZ 18209.27201183  .00001731  00000-0  16696-3 0  9992
2 37103  73.7824  82.5895 0058739 103.7189 257.0541 14.92553302465277
1 37105U 93036BGB 18211.01570681  .00000032  00000-0  25866-4 0  9994
2 37105  73.8908 320.3151 0393355  63.3290 300.7548 13.86460210462784
